[{"OBJECT_NAME":"FENGYUN 1C DEB","OBJECT_ID":"1999-025CYZ","EPOCH":"2026-03-28T04:48:34.996320","MEAN_MOTION":14.04203629,"ECCENTRICITY":0.01212578,"INCLINATION":102.4964,"RA_OF_ASC_NODE":353.4795,"ARG_OF_PERICENTER":119.3371,"MEAN_ANOMALY":241.9959,"EPHEMERIS_TYPE":0,"CLASSIFICATION_TYPE":"U","NORAD_CAT_ID":32356,"ELEMENT_SET_NO":999,"REV_AT_EPOCH":69867,"BSTAR":0.0018055776,"MEAN_MOTION_DOT":2.988e-5,"MEAN_MOTION_DDOT":0},{"OBJECT_NAME":"FENGYUN 1C DEB","OBJECT_ID":"1999-025CZA","EPOCH":"2026-03-21T08:23:09.273696","MEAN_MOTION":13.696203,"ECCENTRICITY":0.04870654,"INCLINATION":98.8516,"RA_OF_ASC_NODE":117.0973,"ARG_OF_PERICENTER":286.4993,"MEAN_ANOMALY":135.4391,"EPHEMERIS_TYPE":0,"CLASSIFICATION_TYPE":"U","NORAD_CAT_ID":32357,"ELEMENT_SET_NO":999,"REV_AT_EPOCH":68137,"BSTAR":0.0015432587,"MEAN_MOTION_DOT":3.076e-5,"MEAN_MOTION_DDOT":0},{"OBJECT_NAME":"FENGYUN 1C DEB","OBJECT_ID":"1999-025CZE","EPOCH":"2026-03-28T03:17:20.347584","MEAN_MOTION":14.52870546,"ECCENTRICITY":0.00457649,"INCLINATION":98.8486,"RA_OF_ASC_NODE":156.7618,"ARG_OF_PERICENTER":87.2109,"MEAN_ANOMALY":273.4322,"EPHEMERIS_TYPE":0,"CLASSIFICATION_TYPE":"U","NORAD_CAT_ID":32361,"ELEMENT_SET_NO":999,"REV_AT_EPOCH":97874,"BSTAR":0.0016028514,"MEAN_MOTION_DOT":6.641e-5,"MEAN_MOTION_DDOT":0},{"OBJECT_NAME":"FENGYUN 1C DEB","OBJECT_ID":"1999-025CZF","EPOCH":"2026-03-28T05:05:11.298048","MEAN_MOTION":13.65789776,"ECCENTRICITY":0.02743909,"INCLINATION":99.8475,"RA_OF_ASC_NODE":65.0708,"ARG_OF_PERICENTER":17.251,"MEAN_ANOMALY":343.7736,"EPHEMERIS_TYPE":0,"CLASSIFICATION_TYPE":"U","NORAD_CAT_ID":32362,"ELEMENT_SET_NO":999,"REV_AT_EPOCH":92569,"BSTAR":0.0036422861,"MEAN_MOTION_DOT":3.819e-5,"MEAN_MOTION_DDOT":0},{"OBJECT_NAME":"FENGYUN 1C DEB","OBJECT_ID":"1999-025CZH","EPOCH":"2026-03-28T08:35:20.073408","MEAN_MOTION":14.15289267,"ECCENTRICITY":0.01285327,"INCLINATION":98.3143,"RA_OF_ASC_NODE":284.149,"ARG_OF_PERICENTER":238.2848,"MEAN_ANOMALY":120.5746,"EPHEMERIS_TYPE":0,"CLASSIFICATION_TYPE":"U","NORAD_CAT_ID":32364,"ELEMENT_SET_NO":999,"REV_AT_EPOCH":65202,"BSTAR":0.0017844663,"MEAN_MOTION_DOT":3.722e-5,"MEAN_MOTION_DDOT":0},{"OBJECT_NAME":"FENGYUN 1C DEB","OBJECT_ID":"1999-025CZK","EPOCH":"2026-03-28T12:52:33.828096","MEAN_MOTION":14.14630916,"ECCENTRICITY":0.0130585,"INCLINATION":96.7742,"RA_OF_ASC_NODE":189.497,"ARG_OF_PERICENTER":310.4797,"MEAN_ANOMALY":48.5058,"EPHEMERIS_TYPE":0,"CLASSIFICATION_TYPE":"U","NORAD_CAT_ID":32366,"ELEMENT_SET_NO":999,"REV_AT_EPOCH":94699,"BSTAR":0.0010018,"MEAN_MOTION_DOT":2.061e-5,"MEAN_MOTION_DDOT":0},{"OBJECT_NAME":"FENGYUN 1C DEB","OBJECT_ID":"1999-025CZR","EPOCH":"2026-03-22T09:11:22.215264","MEAN_MOTION":13.35734475,"ECCENTRICITY":0.04564885,"INCLINATION":97.309,"RA_OF_ASC_NODE":299.6352,"ARG_OF_PERICENTER":141.0159,"MEAN_ANOMALY":222.4835,"EPHEMERIS_TYPE":0,"CLASSIFICATION_TYPE":"U","NORAD_CAT_ID":32372,"ELEMENT_SET_NO":999,"REV_AT_EPOCH":61470,"BSTAR":0.0014266293,"MEAN_MOTION_DOT":1.297e-5,"MEAN_MOTION_DDOT":0},{"OBJECT_NAME":"FENGYUN 1C DEB","OBJECT_ID":"1999-025CZV","EPOCH":"2026-03-27T18:57:39.818016","MEAN_MOTION":14.80290799,"ECCENTRICITY":0.00379215,"INCLINATION":99.574,"RA_OF_ASC_NODE":275.2959,"ARG_OF_PERICENTER":190.6472,"MEAN_ANOMALY":184.0013,"EPHEMERIS_TYPE":0,"CLASSIFICATION_TYPE":"U","NORAD_CAT_ID":32409,"ELEMENT_SET_NO":999,"REV_AT_EPOCH":60391,"BSTAR":0.0021806558,"MEAN_MOTION_DOT":0.00016781,"MEAN_MOTION_DDOT":0},{"OBJECT_NAME":"FENGYUN 1C DEB","OBJECT_ID":"1999-025CZX","EPOCH":"2026-03-26T05:09:27.749664","MEAN_MOTION":14.1001185,"ECCENTRICITY":0.012454,"INCLINATION":98.4298,"RA_OF_ASC_NODE":1.7044,"ARG_OF_PERICENTER":80.3919,"MEAN_ANOMALY":281.1298,"EPHEMERIS_TYPE":0,"CLASSIFICATION_TYPE":"U","NORAD_CAT_ID":32411,"ELEMENT_SET_NO":999,"REV_AT_EPOCH":67272,"BSTAR":0.00032125,"MEAN_MOTION_DOT":5.7e-6,"MEAN_MOTION_DDOT":0},{"OBJECT_NAME":"FENGYUN 1C DEB","OBJECT_ID":"1999-025DAA","EPOCH":"2026-03-27T22:46:26.219712","MEAN_MOTION":14.19070842,"ECCENTRICITY":0.0045834,"INCLINATION":98.8444,"RA_OF_ASC_NODE":162.4258,"ARG_OF_PERICENTER":59.821,"MEAN_ANOMALY":300.7494,"EPHEMERIS_TYPE":0,"CLASSIFICATION_TYPE":"U","NORAD_CAT_ID":32414,"ELEMENT_SET_NO":999,"REV_AT_EPOCH":95224,"BSTAR":0.0011041,"MEAN_MOTION_DOT":2.288e-5,"MEAN_MOTION_DDOT":0},{"OBJECT_NAME":"FENGYUN 1C DEB","OBJECT_ID":"1999-025DAF","EPOCH":"2026-03-20T13:06:41.073408","MEAN_MOTION":14.10234866,"ECCENTRICITY":0.0283184,"INCLINATION":97.9524,"RA_OF_ASC_NODE":8.6451,"ARG_OF_PERICENTER":105.1212,"MEAN_ANOMALY":258.1471,"EPHEMERIS_TYPE":0,"CLASSIFICATION_TYPE":"U","NORAD_CAT_ID":32419,"ELEMENT_SET_NO":999,"REV_AT_EPOCH":64949,"BSTAR":0.00034325,"MEAN_MOTION_DOT":8.47e-6,"MEAN_MOTION_DDOT":0},{"OBJECT_NAME":"FENGYUN 1C DEB","OBJECT_ID":"1999-025DAJ","EPOCH":"2026-03-20T03:14:39.495840","MEAN_MOTION":13.98213559,"ECCENTRICITY":0.02990908,"INCLINATION":97.8472,"RA_OF_ASC_NODE":201.7113,"ARG_OF_PERICENTER":15.2541,"MEAN_ANOMALY":345.7406,"EPHEMERIS_TYPE":0,"CLASSIFICATION_TYPE":"U","NORAD_CAT_ID":32422,"ELEMENT_SET_NO":999,"REV_AT_EPOCH":64494,"BSTAR":0.0001972811,"MEAN_MOTION_DOT":3.76e-6,"MEAN_MOTION_DDOT":0},{"OBJECT_NAME":"FENGYUN 1C DEB","OBJECT_ID":"1999-025DAM","EPOCH":"2026-03-27T02:49:00.455232","MEAN_MOTION":14.17096946,"ECCENTRICITY":0.02316955,"INCLINATION":96.7155,"RA_OF_ASC_NODE":214.001,"ARG_OF_PERICENTER":344.526,"MEAN_ANOMALY":14.8917,"EPHEMERIS_TYPE":0,"CLASSIFICATION_TYPE":"U","NORAD_CAT_ID":32425,"ELEMENT_SET_NO":999,"REV_AT_EPOCH":71013,"BSTAR":0.00028200611,"MEAN_MOTION_DOT":7.08e-6,"MEAN_MOTION_DDOT":0},{"OBJECT_NAME":"FENGYUN 1C DEB","OBJECT_ID":"1999-025DAS","EPOCH":"2026-03-24T06:31:23.146752","MEAN_MOTION":13.70904912,"ECCENTRICITY":0.0366973,"INCLINATION":98.688,"RA_OF_ASC_NODE":103.5335,"ARG_OF_PERICENTER":0.6208,"MEAN_ANOMALY":359.5327,"EPHEMERIS_TYPE":0,"CLASSIFICATION_TYPE":"U","NORAD_CAT_ID":32430,"ELEMENT_SET_NO":999,"REV_AT_EPOCH":92594,"BSTAR":0.0019154,"MEAN_MOTION_DOT":2.716e-5,"MEAN_MOTION_DDOT":0},{"OBJECT_NAME":"FENGYUN 1C DEB","OBJECT_ID":"1999-025DAU","EPOCH":"2026-03-28T20:08:38.782464","MEAN_MOTION":14.54472736,"ECCENTRICITY":0.01677607,"INCLINATION":98.1587,"RA_OF_ASC_NODE":126.3953,"ARG_OF_PERICENTER":338.6813,"MEAN_ANOMALY":20.745,"EPHEMERIS_TYPE":0,"CLASSIFICATION_TYPE":"U","NORAD_CAT_ID":32432,"ELEMENT_SET_NO":999,"REV_AT_EPOCH":72236,"BSTAR":0.0013385375,"MEAN_MOTION_DOT":6.832e-5,"MEAN_MOTION_DDOT":0}]
