FENGYUN 1C DEB          
1 32356U 99025CYZ 26087.20040505  .00002988  00000+0  18056-2 0  9991
2 32356 102.4964 353.4795 0121257 119.3371 241.9959 14.04203629698672
FENGYUN 1C DEB          
1 32357U 99025CZA 26080.34941289  .00003076  00000+0  15433-2 0  9994
2 32357  98.8516 117.0973 0487065 286.4993 135.4391 13.69620300681379
FENGYUN 1C DEB          
1 32361U 99025CZE 26087.13704106  .00006641  00000+0  16029-2 0  9991
2 32361  98.8486 156.7618 0045764  87.2109 273.4322 14.52870546978747
FENGYUN 1C DEB          
1 32362U 99025CZF 26087.21193632  .00003819  00000+0  36423-2 0  9991
2 32362  99.8475  65.0708 0274390  17.2510 343.7736 13.65789776925690
FENGYUN 1C DEB          
1 32364U 99025CZH 26087.35787122  .00003722  00000+0  17845-2 0  9991
2 32364  98.3143 284.1490 0128532 238.2848 120.5746 14.15289267652027
FENGYUN 1C DEB          
1 32366U 99025CZK 26087.53650264  .00002061  00000+0  10018-2 0  9999
2 32366  96.7742 189.4970 0130585 310.4797  48.5058 14.14630916946990
FENGYUN 1C DEB          
1 32372U 99025CZR 26081.38289601  .00001297  00000+0  14266-2 0  9995
2 32372  97.3090 299.6352 0456488 141.0159 222.4835 13.35734475614705
FENGYUN 1C DEB          
1 32409U 99025CZV 26086.79004419  .00016781  00000+0  21807-2 0  9991
2 32409  99.5740 275.2959 0037921 190.6472 184.0013 14.80290799603919
FENGYUN 1C DEB          
1 32411U 99025CZX 26085.21490451  .00000570  00000+0  32125-3 0  9990
2 32411  98.4298   1.7044 0124540  80.3919 281.1298 14.10011850672721
FENGYUN 1C DEB          
1 32414U 99025DAA 26086.94891458  .00002288  00000+0  11041-2 0  9997
2 32414  98.8444 162.4258 0045834  59.8210 300.7494 14.19070842952245
FENGYUN 1C DEB          
1 32419U 99025DAF 26079.54630872  .00000847  00000+0  34325-3 0  9991
2 32419  97.9524   8.6451 0283184 105.1212 258.1471 14.10234866649494
FENGYUN 1C DEB          
1 32422U 99025DAJ 26079.13517935  .00000376  00000+0  19728-3 0  9991
2 32422  97.8472 201.7113 0299090  15.2541 345.7406 13.98213559644946
FENGYUN 1C DEB          
1 32425U 99025DAM 26086.11736638  .00000708  00000+0  28201-3 0  9998
2 32425  96.7155 214.0010 0231695 344.5260  14.8917 14.17096946710138
FENGYUN 1C DEB          
1 32430U 99025DAS 26083.27179568  .00002716  00000+0  19154-2 0  9998
2 32430  98.6880 103.5335 0366973   0.6208 359.5327 13.70904912925942
FENGYUN 1C DEB          
1 32432U 99025DAU 26087.83933776  .00006832  00000+0  13385-2 0  9998
2 32432  98.1587 126.3953 0167760 338.6813  20.7450 14.54472736722363
